     3.04           N: GNSS NAV DATA    M: Mixed            RINEX VERSION / TYPE
CONVBIN demo5 b34f.1                    20220524 041754 UTC PGM / RUN BY / DATE 
log: /home/igor/git/flutter_rtklib/test/data/rcvraw/oemv_200COMMENT             
format: NovAtel OEM7                                        COMMENT             
format: NovAtel OEM7                                        COMMENT             
log: /home/igor/git/flutter_rtklib/test/data/rcvraw/oemv_200COMMENT             
                                                            END OF HEADER       
G11 2009 12 19 00 00 00 -.349921174347D-04 -.204636307899D-11  .000000000000D+00
      .110000000000D+03  .250000000000D+01  .669420741204D-08 -.643248850857D+00
      .279396772385D-06  .103750801645D-01  .442750751972D-05  .515370238495D+04
      .518400000000D+06  .763684511185D-07  .202477519771D+01  .165775418282D-06
      .888351668373D+00  .254312500000D+03  .775219273029D+00 -.916181019760D-08
      .303584074067D-10  .100000000000D+01  .156200000000D+04  .000000000000D+00
      .200000000000D+01  .000000000000D+00 -.116415321827D-07  .110000000000D+03
      .515226000000D+06  .400000000000D+01
G16 2009 12 19 00 00 00 -.209147110581D-04 -.420641299570D-11  .000000000000D+00
      .142000000000D+03 -.113906250000D+03  .396409369184D-08 -.281661273443D+01
     -.580213963985D-05  .542869896162D-02  .968389213085D-05  .515368465042D+04
      .518400000000D+06 -.353902578354D-07  .180360744475D+00  .577419996262D-07
      .970796286339D+00  .199000000000D+03 -.272845739337D+00 -.767817696975D-08
      .142863093678D-10  .100000000000D+01  .156200000000D+04  .000000000000D+00
      .200000000000D+01  .000000000000D+00 -.977888703346D-08  .142000000000D+03
      .515226000000D+06  .400000000000D+01
G07 2009 12 19 00 00 00  .575697049499D-05 -.682121026330D-12  .000000000000D+00
      .690000000000D+02 -.448750000000D+02  .447590072495D-08 -.542101694220D+00
     -.245682895184D-05  .324354576878D-02  .136345624924D-05  .515372780800D+04
      .518400000000D+06  .894069671631D-07 -.889757496074D+00 -.391155481339D-07
      .969825853780D+00  .358812500000D+03  .305678424967D+01 -.828248785601D-08
     -.196079596074D-09  .100000000000D+01  .156200000000D+04  .000000000000D+00
      .200000000000D+01  .000000000000D+00 -.107102096081D-07  .690000000000D+02
      .515226000000D+06  .400000000000D+01
G19 2009 12 19 00 00 00 -.467523932457D-05 -.204636307899D-11  .000000000000D+00
      .780000000000D+02  .756250000000D+01  .465590822298D-08  .160971854674D+01
      .465661287308D-06  .596673821565D-02  .785663723946D-05  .515367879868D+04
      .518400000000D+06  .689178705215D-07  .127837146389D+01  .651925802231D-07
      .957259574732D+00  .224906250000D+03 -.188427052400D+00 -.793175896103D-08
      .451804533758D-09  .100000000000D+01  .156200000000D+04  .000000000000D+00
      .200000000000D+01  .000000000000D+00 -.144354999065D-07  .780000000000D+02
      .515226000000D+06  .400000000000D+01
G06 2009 12 19 00 00 00  .263439957052D-03 -.454747350886D-12  .000000000000D+00
      .240000000000D+02  .218750000000D+01  .506592530184D-08 -.303290595218D+01
      .104308128357D-06  .581578095444D-02  .845082104206D-05  .515366494751D+04
      .518400000000D+06  .931322574615D-07  .115390211467D+01  .987201929092D-07
      .933889369178D+00  .198906250000D+03 -.118638983426D+01 -.807462205471D-08
      .585738684082D-09  .100000000000D+01  .156200000000D+04  .000000000000D+00
      .200000000000D+01  .000000000000D+00 -.512227416039D-08  .240000000000D+02
      .515226000000D+06  .400000000000D+01
G13 2009 12 19 00 00 00  .306589528918D-03  .000000000000D+00  .000000000000D+00
      .830000000000D+02  .106906250000D+03  .376801409577D-08  .188734303379D+01
      .542402267456D-05  .397012266330D-02  .524707138538D-05  .515361372757D+04
      .518400000000D+06  .558793544769D-08 -.187514078435D+01 -.819563865662D-07
      .993803644322D+00  .291906250000D+03  .164584578708D+01 -.774889420112D-08
      .181793286706D-09  .100000000000D+01  .156200000000D+04  .000000000000D+00
      .200000000000D+01  .000000000000D+00 -.111758708954D-07  .830000000000D+02
      .515226000000D+06  .400000000000D+01
G03 2009 12 19 00 00 00  .489834230393D-03  .522959453519D-11  .000000000000D+00
      .680000000000D+02 -.228125000000D+01  .529879214453D-08  .960630544678D+00
     -.465661287308D-07  .127291339450D-01  .915490090847D-05  .515367845154D+04
      .518400000000D+06 -.130385160446D-06  .108459207992D+01  .931322574615D-07
      .926542338573D+00  .187343750000D+03  .973659372090D+00 -.844606609827D-08
      .442161274935D-09  .100000000000D+01  .156200000000D+04  .000000000000D+00
      .280000000000D+01  .000000000000D+00 -.419095158577D-08  .680000000000D+02
      .515226000000D+06  .400000000000D+01
G22 2009 12 19 00 00 00  .183714553714D-03 -.795807864051D-12  .000000000000D+00
      .610000000000D+02  .516562500000D+02  .479591405479D-08  .263043521116D+01
      .264309346676D-05  .518977991305D-02  .105146318674D-04  .515366719818D+04
      .518400000000D+06  .558793544769D-07 -.295536518630D+01 -.819563865662D-07
      .937559077236D+00  .164656250000D+03 -.187615156273D+01 -.789497171440D-08
     -.396802242692D-09  .100000000000D+01  .156200000000D+04  .000000000000D+00
      .280000000000D+01  .000000000000D+00 -.176951289177D-07  .610000000000D+02
      .515226000000D+06  .400000000000D+01
G08 2009 12 19 00 00 00  .105937942863D-05  .454747350886D-12  .000000000000D+00
      .170000000000D+02 -.636875000000D+02  .392766360295D-08 -.113771324084D+01
     -.344589352608D-05  .110063365428D-01  .197440385818D-05  .515373803520D+04
      .518400000000D+06  .186264514923D-07 -.825140100226D+00 -.188127160072D-06
      .991144991133D+00  .355375000000D+03  .307325814529D+01 -.801497671309D-08
     -.867893294096D-10  .100000000000D+01  .156200000000D+04  .000000000000D+00
      .200000000000D+01  .000000000000D+00 -.372529029846D-08  .170000000000D+02
      .515226000000D+06  .400000000000D+01
R14 2009 12 18 23 15 00 -.130841508508D-04  .181898940355D-11  .515190000000D+06
     -.145564423828D+05 -.964970588684D+00  .931322574615D-09  .000000000000D+00
      .181902060547D+05  .105136585236D+01 -.931322574615D-09 -.700000000000D+01
      .102850830078D+05 -.322905063629D+01 -.931322574615D-09  .000000000000D+00
R15 2009 12 18 23 15 00  .115172937512D-03  .909494701773D-12  .515190000000D+06
      .645580078125D+03 -.229076099396D+01  .279396772385D-08  .000000000000D+00
      .126177753906D+05  .199374389648D+01  .000000000000D+00  .000000000000D+00
      .221884707031D+05 -.105803680420D+01  .000000000000D+00  .000000000000D+00
R23 2009 12 18 23 15 00 -.119870528579D-04  .000000000000D+00  .515190000000D+06
     -.112692016602D+05 -.509195327759D+00  .000000000000D+00  .000000000000D+00
     -.106534580078D+05 -.272900104523D+01  .000000000000D+00  .300000000000D+01
      .202582163086D+05 -.171477699280D+01 -.279396772385D-08  .000000000000D+00
R17 2009 12 18 23 15 00 -.278702005744D-03  .000000000000D+00  .515190000000D+06
     -.196694873047D+04 -.897684097290D-01  .279396772385D-08  .000000000000D+00
      .226324389648D+05 -.160388469696D+01  .000000000000D+00  .400000000000D+01
      .116864042969D+05  .308179759979D+01  .000000000000D+00  .000000000000D+00
R13 2009 12 18 23 15 00 -.256392173469D-03 -.909494701773D-12  .515190000000D+06
     -.208615268555D+05  .825549125671D+00 -.931322574615D-09  .000000000000D+00
      .130626450195D+05 -.433491706848D+00 -.279396772385D-08 -.200000000000D+01
     -.667617529297D+04 -.343455505371D+01 -.931322574615D-09  .000000000000D+00
